[{"OBJECT_NAME":"STARLINK-32575","OBJECT_ID":"2024-225L","EPOCH":"2026-03-09T15:35:37.256064","MEAN_MOTION":14.98338005,"ECCENTRICITY":0.00030068,"INCLINATION":70.0022,"RA_OF_ASC_NODE":154.3672,"ARG_OF_PERICENTER":277.8977,"MEAN_ANOMALY":82.184,"EPHEMERIS_TYPE":0,"CLASSIFICATION_TYPE":"U","NORAD_CAT_ID":62173,"ELEMENT_SET_NO":999,"REV_AT_EPOCH":7012,"BSTAR":0.00057818351,"MEAN_MOTION_DOT":6.814e-5,"MEAN_MOTION_DDOT":0},{"OBJECT_NAME":"CZ-2D R\/B","OBJECT_ID":"2010-027B","EPOCH":"2026-03-09T19:01:31.304352","MEAN_MOTION":15.02332282,"ECCENTRICITY":0.00475082,"INCLINATION":97.9913,"RA_OF_ASC_NODE":95.0303,"ARG_OF_PERICENTER":252.3591,"MEAN_ANOMALY":107.2442,"EPHEMERIS_TYPE":0,"CLASSIFICATION_TYPE":"U","NORAD_CAT_ID":36597,"ELEMENT_SET_NO":999,"REV_AT_EPOCH":85595,"BSTAR":0.00022535675,"MEAN_MOTION_DOT":2.983e-5,"MEAN_MOTION_DDOT":0}]
